NORAD_CAT_ID,OBJECT_NAME,OBJECT_TYPE,EPOCH,MEAN_MOTION,ECCENTRICITY,INCLINATION,RA_OF_ASC_NODE,ARG_OF_PERICENTER,MEAN_ANOMALY,BSTAR,MEAN_MOTION_DOT,MEAN_MOTION_DDOT,TLE_LINE0,TLE_LINE1,TLE_LINE2,SEMIMAJOR_AXIS,PERIOD,APOGEE,PERIGEE,DECAYED
55763.0,STARLINK-5593,PAYLOAD,2023-05-14 06:00:00,14.98317716,0.0003331,70.0013,322.4017,270.5598,110.5823,-0.00040661,-4.94e-05,0.0,0 STARLINK-5593,1 55763U 23028Y   23134.25001157 -.00004940  00000-0 -40661-3 0  9994,2 55763  70.0013 322.4017 0003331 270.5598 110.5823 14.98317716 11698,6950.231,96.108,574.411,569.781,0.0
55763.0,STARLINK-5593,PAYLOAD,2023-05-14 14:00:01,14.98343662,0.0003392,70.0015,321.5613,267.801,110.8006,-0.0010844,-0.00013013,0.0,0 STARLINK-5593,1 55763U 23028Y   23134.58334491 -.00013013  00000-0 -10844-2 0  9990,2 55763  70.0015 321.5613 0003392 267.8010 110.8006 14.98343662  1309,6950.151,96.106,574.373,569.658,0.0
55763.0,STARLINK-5593,PAYLOAD,2023-05-14 22:00:00,14.98315177,0.0003414,70.0013,320.7207,272.8742,103.2263,0.0019933,0.00023763,0.0,0 STARLINK-5593,1 55763U 23028Y   23134.91667824  .00023763  00000-0  19933-2 0  9995,2 55763  70.0013 320.7207 0003414 272.8742 103.2263 14.98315177  1301,6950.239,96.108,574.477,569.731,0.0
55763.0,STARLINK-5593,PAYLOAD,2023-05-15 14:00:01,14.98367018,0.0003451,70.0012,319.0397,267.7288,103.3295,-0.0023425,-0.0002796,0.0,0 STARLINK-5593,1 55763U 23028Y   23135.58334491 -.00027960  00000-0 -23425-2 0  9996,2 55763  70.0012 319.0397 0003451 267.7288 103.3295 14.98367018  1307,6950.078,96.105,574.342,569.545,0.0
55763.0,STARLINK-5593,PAYLOAD,2023-05-15 17:09:20,14.98334482,0.0003355,69.9997,318.7092,270.4429,89.6345,4.7055e-05,4.69e-06,0.0,0 STARLINK-5593,1 55763U 23028Y   23135.71482235  .00000469  00000-0  47055-4 0  9991,2 55763  69.9997 318.7092 0003355 270.4429  89.6345 14.98334482 11914,6950.179,96.107,574.376,569.712,0.0
55763.0,STARLINK-5593,PAYLOAD,2023-05-16 12:22:57,14.98322709,0.0003316,69.9993,316.6876,269.6588,90.4192,2.599e-06,-6.2e-07,0.0,0 STARLINK-5593,1 55763U 23028Y   23136.51594881 -.00000062  00000-0  25990-5 0  9996,2 55763  69.9993 316.6876 0003316 269.6588  90.4192 14.98322709 12033,6950.215,96.107,574.385,569.776,0.0
55763.0,STARLINK-5593,PAYLOAD,2023-05-16 18:47:30,14.9832656,0.0003139,69.9998,316.0145,270.4735,89.6064,-8.6694e-06,-1.96e-06,0.0,0 STARLINK-5593,1 55763U 23028Y   23136.78298775 -.00000196  00000-0 -86694-5 0  9995,2 55763  69.9998 316.0145 0003139 270.4735  89.6064 14.98326560 12079,6950.204,96.107,574.25,569.887,0.0
55763.0,STARLINK-5593,PAYLOAD,2023-05-16 21:59:46,14.98325274,0.0003175,69.9998,315.678,270.3991,89.6804,-3.7901e-06,-1.38e-06,0.0,0 STARLINK-5593,1 55763U 23028Y   23136.91650864 -.00000138  00000-0 -37901-5 0  9994,2 55763  69.9998 315.6780 0003175 270.3991  89.6804 14.98325274 12097,6950.208,96.107,574.279,569.866,0.0
55763.0,STARLINK-5593,PAYLOAD,2023-05-17 22:00:00,14.98316995,0.0003326,70.0006,313.156,274.5591,78.9101,0.0020844,0.00024858,0.0,0 STARLINK-5593,1 55763U 23028Y   23137.91667824  .00024858  00000-0  20844-2 0  9997,2 55763  70.0006 313.1560 0003326 274.5591  78.9101 14.98316995 12236,6950.233,96.108,574.41,569.786,0.0
55763.0,STARLINK-5593,PAYLOAD,2023-05-18 12:26:59,14.98326798,0.0003167,69.9997,311.6381,271.7739,88.3057,3.6705e-05,3.45e-06,0.0,0 STARLINK-5593,1 55763U 23028Y   23138.51874590  .00000345  00000-0  36705-4 0  9994,2 55763  69.9997 311.6381 0003167 271.7739  88.3057 14.98326798 12330,6950.203,96.107,574.269,569.867,0.0
55763.0,STARLINK-5593,PAYLOAD,2023-05-19 17:17:24,14.98330176,0.0003205,69.9996,308.6085,270.1681,89.9111,-4.177e-06,-1.43e-06,0.0,0 STARLINK-5593,1 55763U 23028Y   23139.72042565 -.00000143  00000-0 -41770-5 0  9994,2 55763  69.9996 308.6085 0003205 270.1681  89.9111 14.98330176 12511,6950.192,96.107,574.285,569.83,0.0
55763.0,STARLINK-5593,PAYLOAD,2023-05-19 20:29:40,14.98330397,0.0003203,69.9996,308.2718,270.4414,89.6378,-1.1846e-06,-1.07e-06,0.0,0 STARLINK-5593,1 55763U 23028Y   23139.85394539 -.00000107  00000-0 -11846-5 0  9990,2 55763  69.9996 308.2718 0003203 270.4414  89.6378 14.98330397 12534,6950.192,96.107,574.283,569.831,0.0
55763.0,STARLINK-5593,PAYLOAD,2023-05-20 17:19:25,14.98335643,0.0003111,69.9994,306.0831,268.2546,91.8257,7.1111e-05,7.56e-06,0.0,0 STARLINK-5593,1 55763U 23028Y   23140.72181898  .00000756  00000-0  71111-4 0  9998,2 55763  69.9994 306.0831 0003111 268.2546  91.8257 14.98335643 12667,6950.175,96.107,574.203,569.878,0.0
55763.0,STARLINK-5593,PAYLOAD,2023-05-20 20:31:41,14.98336128,0.0003136,69.9995,305.7464,268.3776,91.7024,7.325e-05,7.81e-06,0.0,0 STARLINK-5593,1 55763U 23028Y   23140.85533812  .00000781  00000-0  73250-4 0  9993,2 55763  69.9995 305.7464 0003136 268.3776  91.7024 14.98336128 12681,6950.174,96.107,574.219,569.859,0.0
55763.0,STARLINK-5593,PAYLOAD,2023-05-21 10:56:54,14.98328254,0.0002782,69.9999,304.2316,273.7544,86.3297,-1.5467e-05,-2.77e-06,0.0,0 STARLINK-5593,1 55763U 23028Y   23141.45618648 -.00000277  00000-0 -15467-4 0  9999,2 55763  69.9999 304.2316 0002782 273.7544  86.3297 14.98328254 12777,6950.198,96.107,573.997,570.13,0.0
55763.0,STARLINK-5593,PAYLOAD,2023-05-21 18:57:35,14.98320826,0.000315,69.9999,303.3893,270.7041,89.3757,-9.9005e-05,-1.274e-05,0.0,0 STARLINK-5593,1 55763U 23028Y   23141.78999378 -.00001274  00000-0 -99005-4 0  9995,2 55763  69.9999 303.3893 0003150 270.7041  89.3757 14.98320826 12823,6950.221,96.108,574.276,569.897,0.0
55763.0,STARLINK-5593,PAYLOAD,2023-05-21 20:33:43,14.98321225,0.0003146,69.9999,303.2209,270.7751,89.3048,-9.3243e-05,-1.205e-05,0.0,0 STARLINK-5593,1 55763U 23028Y   23141.85675370 -.00001205  00000-0 -93243-4 0  9998,2 55763  69.9999 303.2209 0003146 270.7751  89.3048 14.98321225 12834,6950.22,96.108,574.272,569.898,0.0
55763.0,STARLINK-5593,PAYLOAD,2023-05-22 04:34:23,14.98326377,0.0003088,70.0,302.3798,271.2767,88.8038,-3.1958e-05,-4.74e-06,0.0,0 STARLINK-5593,1 55763U 23028Y   23142.19055022 -.00000474  00000-0 -31958-4 0  9994,2 55763  70.0000 302.3798 0003088 271.2767  88.8038 14.98326377 12882,6950.204,96.107,574.215,569.923,0.0
55763.0,STARLINK-5593,PAYLOAD,2023-05-22 10:58:55,14.98332051,0.0003239,69.9996,301.7062,271.1167,88.9621,2.1735e-05,1.66e-06,0.0,0 STARLINK-5593,1 55763U 23028Y   23142.45758467  .00000166  00000-0  21735-4 0  9994,2 55763  69.9996 301.7062 0003239 271.1167  88.9621 14.98332051 12921,6950.187,96.107,574.303,569.8,0.0
55763.0,STARLINK-5593,PAYLOAD,2023-05-22 17:23:27,14.98336221,0.0003327,69.9994,301.0335,271.2449,88.8329,1.2204e-05,5.3e-07,0.0,0 STARLINK-5593,1 55763U 23028Y   23142.72462185  .00000053  00000-0  12204-4 0  9999,2 55763  69.9994 301.0335 0003327 271.2449  88.8329 14.98336221 12968,6950.174,96.107,574.351,569.726,0.0
55763.0,STARLINK-5593,PAYLOAD,2023-05-23 09:24:48,14.98323816,0.0003347,69.9993,299.3501,272.9166,87.161,0.00011771,1.312e-05,0.0,0 STARLINK-5593,1 55763U 23028Y   23143.39222562  .00001312  00000-0  11771-3 0  9992,2 55763  69.9993 299.3501 0003347 272.9166  87.1610 14.98323816 13060,6950.212,96.107,574.403,569.751,0.0
55763.0,STARLINK-5593,PAYLOAD,2023-05-23 19:01:36,14.98326781,0.000336,69.9994,298.34,272.7787,87.2987,9.4025e-05,1.029e-05,0.0,0 STARLINK-5593,1 55763U 23028Y   23143.79278550  .00001029  00000-0  94025-4 0  9993,2 55763  69.9994 298.3400 0003360 272.7787  87.2987 14.98326781 13129,6950.203,96.107,574.403,569.733,0.0
55763.0,STARLINK-5593,PAYLOAD,2023-05-24 15:51:21,14.98333544,0.0003253,69.9999,296.1518,272.737,87.3417,-1.1112e-05,-2.26e-06,0.0,0 STARLINK-5593,1 55763U 23028Y   23144.66066399 -.00000226  00000-0 -11112-4 0  9992,2 55763  69.9999 296.1518 0003253 272.7370  87.3417 14.98333544 13257,6950.182,96.107,574.308,569.786,0.0
55763.0,STARLINK-5593,PAYLOAD,2023-05-25 17:29:30,14.98330561,0.0003211,70.0001,293.4588,270.0098,90.0693,3.3548e-06,-5.3e-07,0.0,0 STARLINK-5593,1 55763U 23028Y   23145.72882363 -.00000053  00000-0  33548-5 0  9992,2 55763  70.0001 293.4588 0003211 270.0098  90.0693 14.98330561 13414,6950.191,96.107,574.288,569.824,0.0
55763.0,STARLINK-5593,PAYLOAD,2023-05-25 19:05:38,14.98331045,0.0003202,70.0001,293.2905,269.8339,90.2453,8.9401e-06,1.4e-07,0.0,0 STARLINK-5593,1 55763U 23028Y   23145.79558309  .00000014  00000-0  89401-5 0  9994,2 55763  70.0001 293.2905 0003202 269.8339  90.2453 14.98331045 13424,6950.19,96.107,574.28,569.829,0.0
55763.0,STARLINK-5593,PAYLOAD,2023-05-26 12:43:07,14.98331074,0.0003181,70.0003,291.4399,266.845,93.2345,-2.2531e-05,-3.62e-06,0.0,0 STARLINK-5593,1 55763U 23028Y   23146.52994308 -.00000362  00000-0 -22531-4 0  9997,2 55763  70.0003 291.4399 0003181 266.8450  93.2345 14.98331074 13537,6950.19,96.107,574.265,569.844,0.0
55763.0,STARLINK-5593,PAYLOAD,2023-05-26 17:31:31,14.98330582,0.0003161,70.0004,290.9349,266.5399,93.5399,-1.3973e-05,-2.6e-06,0.0,0 STARLINK-5593,1 55763U 23028Y   23146.73022299 -.00000260  00000-0 -13973-4 0  9998,2 55763  70.0004 290.9349 0003161 266.5399  93.5399 14.98330582 13562,6950.191,96.107,574.253,569.859,0.0
55763.0,STARLINK-5593,PAYLOAD,2023-05-26 19:07:39,14.98330688,0.0003161,70.0004,290.7666,266.5834,93.4963,-1.2716e-05,-2.45e-06,0.0,0 STARLINK-5593,1 55763U 23028Y   23146.79698283 -.00000245  00000-0 -12716-4 0  9993,2 55763  70.0004 290.7666 0003161 266.5834  93.4963 14.98330688 13570,6950.191,96.107,574.253,569.859,0.0
55763.0,STARLINK-5593,PAYLOAD,2023-05-27 11:08:59,14.98336776,0.0003418,69.9996,289.0817,270.8631,89.2137,0.00010514,1.162e-05,0.0,0 STARLINK-5593,1 55763U 23028Y   23147.46457358  .00001162  00000-0  10514-3 0  9994,2 55763  69.9996 289.0817 0003418 270.8631  89.2137 14.98336776 13675,6950.172,96.107,574.413,569.661,0.0
55763.0,STARLINK-5593,PAYLOAD,2023-05-27 19:09:39,14.98342306,0.0003477,69.9997,288.2401,270.3566,89.7194,9.0651e-05,9.89e-06,0.0,0 STARLINK-5593,1 55763U 23028Y   23147.79836840  .00000989  00000-0  90651-4 0  9994,2 55763  69.9997 288.2401 0003477 270.3566  89.7194 14.98342306 13723,6950.155,96.106,574.436,569.603,0.0
